{
  "type": "FeatureCollection",
  "features": [
    {
      "type": "Feature",
      "properties": {
        "norad_id": 66505,
        "name": "STARLINK-34766",
        "group": "last-30-days",
        "lat": -4.3407450296879775,
        "lon": -68.8645817001822,
        "alt_km": 441.1594121805956,
        "timestamp": "2025-12-15T22:44:27.659253+00:00",
        "meta_object_name": "STARLINK-34766",
        "meta_object_id": "2025-263W",
        "meta_epoch": "2025-12-15T04:50:05.906400",
        "meta_mean_motion": 15.42103885,
        "meta_eccentricity": 0.00021329,
        "meta_inclination": 42.9993,
        "meta_ra_of_asc_node": 110.7711,
        "meta_arg_of_pericenter": 255.0077,
        "meta_mean_anomaly": 105.0544,
        "meta_ephemeris_type": 0,
        "meta_classification_type": "U",
        "meta_norad_cat_id": 66505,
        "meta_element_set_no": 999,
        "meta_rev_at_epoch": 594,
        "meta_bstar": -0.0071431578,
        "meta_mean_motion_dot": -0.00301061,
        "meta_mean_motion_ddot": 0,
        "tle_line1": "1 66505U 25263W   25349.20145725 -.00301061  00000+0 -71432-2 0  9990",
        "tle_line2": "2 66505  42.9993 110.7711 0002132 255.0077 105.0544 15.42103885  5946"
      },
      "geometry": {
        "type": "Point",
        "coordinates": [
          -68.8645817001822,
          -4.3407450296879775
        ]
      }
    },
    {
      "type": "Feature",
      "properties": {
        "norad_id": 66506,
        "name": "STARLINK-34765",
        "group": "last-30-days",
        "lat": -39.12152263465903,
        "lon": -12.894250229048145,
        "alt_km": 415.04510076418774,
        "timestamp": "2025-12-15T22:44:27.659263+00:00",
        "meta_object_name": "STARLINK-34765",
        "meta_object_id": "2025-263X",
        "meta_epoch": "2025-12-15T01:35:15.251136",
        "meta_mean_motion": 15.51062947,
        "meta_eccentricity": 0.00037368,
        "meta_inclination": 42.9981,
        "meta_ra_of_asc_node": 111.4764,
        "meta_arg_of_pericenter": 300.7166,
        "meta_mean_anomaly": 59.3326,
        "meta_ephemeris_type": 0,
        "meta_classification_type": "U",
        "meta_norad_cat_id": 66506,
        "meta_element_set_no": 999,
        "meta_rev_at_epoch": 592,
        "meta_bstar": 0.0015196471,
        "meta_mean_motion_dot": 0.0009144,
        "meta_mean_motion_ddot": 0,
        "tle_line1": "1 66506U 25263X   25349.06614874  .00091440  00000+0  15196-2 0  9991",
        "tle_line2": "2 66506  42.9981 111.4764 0003736 300.7166  59.3326 15.51062947  5928"
      },
      "geometry": {
        "type": "Point",
        "coordinates": [
          -12.894250229048145,
          -39.12152263465903
        ]
      }
    },
    {
      "type": "Feature",
      "properties": {
        "norad_id": 66507,
        "name": "STARLINK-34767",
        "group": "last-30-days",
        "lat": 40.1564425437287,
        "lon": -138.23381512634282,
        "alt_km": 438.46431621763895,
        "timestamp": "2025-12-15T22:44:27.659273+00:00",
        "meta_object_name": "STARLINK-34767",
        "meta_object_id": "2025-263Y",
        "meta_epoch": "2025-12-15T08:00:01.999872",
        "meta_mean_motion": 15.40674121,
        "meta_eccentricity": 0.00014378,
        "meta_inclination": 43.0002,
        "meta_ra_of_asc_node": 110.1918,
        "meta_arg_of_pericenter": 266.7682,
        "meta_mean_anomaly": 31.4825,
        "meta_ephemeris_type": 0,
        "meta_classification_type": "U",
        "meta_norad_cat_id": 66507,
        "meta_element_set_no": 999,
        "meta_rev_at_epoch": 605,
        "meta_bstar": 0.001265802,
        "meta_mean_motion_dot": 0.00052894,
        "meta_mean_motion_ddot": 0,
        "tle_line1": "1 66507U 25263Y   25349.33335648  .00052894  00000+0  12658-2 0  9991",
        "tle_line2": "2 66507  43.0002 110.1918 0001437 266.7682  31.4825 15.40674121  6053"
      },
      "geometry": {
        "type": "Point",
        "coordinates": [
          -138.23381512634282,
          40.1564425437287
        ]
      }
    },
    {
      "type": "Feature",
      "properties": {
        "norad_id": 66508,
        "name": "STARLINK-35608",
        "group": "last-30-days",
        "lat": 14.311874965198761,
        "lon": -89.35691127778334,
        "alt_km": 441.861866896169,
        "timestamp": "2025-12-15T22:44:27.659283+00:00",
        "meta_object_name": "STARLINK-35608",
        "meta_object_id": "2025-263Z",
        "meta_epoch": "2025-12-15T08:00:01.999872",
        "meta_mean_motion": 15.40678977,
        "meta_eccentricity": 0.0001396,
        "meta_inclination": 43.0003,
        "meta_ra_of_asc_node": 110.0721,
        "meta_arg_of_pericenter": 258.6574,
        "meta_mean_anomaly": 89.3491,
        "meta_ephemeris_type": 0,
        "meta_classification_type": "U",
        "meta_norad_cat_id": 66508,
        "meta_element_set_no": 999,
        "meta_rev_at_epoch": 605,
        "meta_bstar": 0.0013298118,
        "meta_mean_motion_dot": 0.00055613,
        "meta_mean_motion_ddot": 0,
        "tle_line1": "1 66508U 25263Z   25349.33335648  .00055613  00000+0  13298-2 0  9995",
        "tle_line2": "2 66508  43.0003 110.0721 0001396 258.6574  89.3491 15.40678977  6054"
      },
      "geometry": {
        "type": "Point",
        "coordinates": [
          -89.35691127778334,
          14.311874965198761
        ]
      }
    },
    {
      "type": "Feature",
      "properties": {
        "norad_id": 66509,
        "name": "STARLINK-35598",
        "group": "last-30-days",
        "lat": -42.15285774530817,
        "lon": 2.587292022542467,
        "alt_km": 417.0600554241855,
        "timestamp": "2025-12-15T22:44:27.659294+00:00",
        "meta_object_name": "STARLINK-35598",
        "meta_object_id": "2025-263AA",
        "meta_epoch": "2025-12-14T08:31:08.436000",
        "meta_mean_motion": 15.50307356,
        "meta_eccentricity": 0.00024598,
        "meta_inclination": 42.9963,
        "meta_ra_of_asc_node": 115.5964,
        "meta_arg_of_pericenter": 212.5604,
        "meta_mean_anomaly": 147.5105,
        "meta_ephemeris_type": 0,
        "meta_classification_type": "U",
        "meta_norad_cat_id": 66509,
        "meta_element_set_no": 999,
        "meta_rev_at_epoch": 581,
        "meta_bstar": 0.0014213788,
        "meta_mean_motion_dot": 0.0008313,
        "meta_mean_motion_ddot": 0,
        "tle_line1": "1 66509U 25263AA  25348.35495875  .00083130  00000+0  14214-2 0  9990",
        "tle_line2": "2 66509  42.9963 115.5964 0002459 212.5604 147.5105 15.50307356  5814"
      },
      "geometry": {
        "type": "Point",
        "coordinates": [
          2.587292022542467,
          -42.15285774530817
        ]
      }
    },
    {
      "type": "Feature",
      "properties": {
        "norad_id": 66510,
        "name": "STARLINK-35600",
        "group": "last-30-days",
        "lat": -38.38711156275598,
        "lon": -15.453402379176032,
        "alt_km": 424.4153769839868,
        "timestamp": "2025-12-15T22:44:27.659310+00:00",
        "meta_object_name": "STARLINK-35600",
        "meta_object_id": "2025-263AB",
        "meta_epoch": "2025-12-15T04:39:06.159456",
        "meta_mean_motion": 15.48294226,
        "meta_eccentricity": 0.00027466,
        "meta_inclination": 43.0007,
        "meta_ra_of_asc_node": 110.7125,
        "meta_arg_of_pericenter": 259.6453,
        "meta_mean_anomaly": 100.4097,
        "meta_ephemeris_type": 0,
        "meta_classification_type": "U",
        "meta_norad_cat_id": 66510,
        "meta_element_set_no": 999,
        "meta_rev_at_epoch": 594,
        "meta_bstar": -0.0056122837,
        "meta_mean_motion_dot": -0.00292969,
        "meta_mean_motion_ddot": 0,
        "tle_line1": "1 66510U 25263AB  25349.19382129 -.00292969  00000+0 -56123-2 0  9991",
        "tle_line2": "2 66510  43.0007 110.7125 0002746 259.6453 100.4097 15.48294226  5946"
      },
      "geometry": {
        "type": "Point",
        "coordinates": [
          -15.453402379176032,
          -38.38711156275598
        ]
      }
    },
    {
      "type": "Feature",
      "properties": {
        "norad_id": 66511,
        "name": "STARLINK-35444",
        "group": "last-30-days",
        "lat": -42.10852322539541,
        "lon": 2.18076539645131,
        "alt_km": 416.87999608990776,
        "timestamp": "2025-12-15T22:44:27.659320+00:00",
        "meta_object_name": "STARLINK-35444",
        "meta_object_id": "2025-263AC",
        "meta_epoch": "2025-12-15T09:15:34.614720",
        "meta_mean_motion": 15.50603088,
        "meta_eccentricity": 0.00017085,
        "meta_inclination": 43.0026,
        "meta_ra_of_asc_node": 109.5715,
        "meta_arg_of_pericenter": 269.8581,
        "meta_mean_anomaly": 90.2084,
        "meta_ephemeris_type": 0,
        "meta_classification_type": "U",
        "meta_norad_cat_id": 66511,
        "meta_element_set_no": 999,
        "meta_rev_at_epoch": 597,
        "meta_bstar": 0.0015410502,
        "meta_mean_motion_dot": 0.00091203,
        "meta_mean_motion_ddot": 0,
        "tle_line1": "1 66511U 25263AC  25349.38581730  .00091203  00000+0  15411-2 0  9993",
        "tle_line2": "2 66511  43.0026 109.5715 0001708 269.8581  90.2084 15.50603088  5979"
      },
      "geometry": {
        "type": "Point",
        "coordinates": [
          2.18076539645131,
          -42.10852322539541
        ]
      }
    }
  ]
}